NORAD_CAT_ID,OBJECT_NAME,OBJECT_TYPE,EPOCH,MEAN_MOTION,ECCENTRICITY,INCLINATION,RA_OF_ASC_NODE,ARG_OF_PERICENTER,MEAN_ANOMALY,BSTAR,MEAN_MOTION_DOT,MEAN_MOTION_DDOT,TLE_LINE0,TLE_LINE1,TLE_LINE2,SEMIMAJOR_AXIS,PERIOD,APOGEE,PERIGEE,DECAYED
53424.0,STARLINK-4532,PAYLOAD,2023-09-22 04:25:12,15.0886678,0.000138,53.2152,192.1553,92.1079,268.0071,0.001635,0.00025848,0.0,0 STARLINK-4532,1 53424U 22097AN  23265.18417824  .00025848  00000-0  16350-2 0  9995,2 53424  53.2152 192.1553 0001380  92.1079 268.0071 15.08866780 62858,6917.799,95.436,540.618,538.709,0.0
53424.0,STARLINK-4532,PAYLOAD,2023-09-23 02:40:36,15.08865851,0.0001498,53.2157,187.9899,93.6837,266.4326,0.0016148,0.00025523,0.0,0 STARLINK-4532,1 53424U 22097AN  23266.11153494  .00025523  00000-0  16148-2 0  9994,2 53424  53.2157 187.9899 0001498  93.6837 266.4326 15.08865851 62512,6917.801,95.436,540.703,538.63,0.0
53424.0,STARLINK-4532,PAYLOAD,2023-09-23 18:34:28,15.08843419,0.0001476,53.2151,185.0174,93.0888,267.0273,0.0017552,0.00027759,0.0,0 STARLINK-4532,1 53424U 22097AN  23266.77393725  .00027759  00000-0  17552-2 0  9992,2 53424  53.2151 185.0174 0001476  93.0888 267.0273 15.08843419 62612,6917.87,95.437,540.756,538.714,0.0
53424.0,STARLINK-4532,PAYLOAD,2023-09-24 04:06:46,15.08855043,0.0001333,53.2157,183.2323,109.1213,250.9924,0.0011552,0.00018152,0.0,0 STARLINK-4532,1 53424U 22097AN  23267.17137304  .00018152  00000-0  11552-2 0  9997,2 53424  53.2157 183.2323 0001333 109.1213 250.9924 15.08855043 62673,6917.834,95.437,540.622,538.777,0.0
53424.0,STARLINK-4532,PAYLOAD,2023-09-24 18:25:15,15.08836699,0.0001586,53.2155,180.5586,95.7299,264.3873,0.00047977,7.355e-05,0.0,0 STARLINK-4532,1 53424U 22097AN  23267.76753855  .00007355  00000-0  47977-3 0  9991,2 53424  53.2155 180.5586 0001586  95.7299 264.3873 15.08836699 62764,6917.89,95.438,540.853,538.658,0.0
53424.0,STARLINK-4532,PAYLOAD,2023-09-24 21:36:01,15.0883451,0.0001307,53.2156,179.9638,99.5404,260.5736,0.0004532,6.931e-05,0.0,0 STARLINK-4532,1 53424U 22097AN  23267.90001927  .00006931  00000-0  45320-3 0  9992,2 53424  53.2156 179.9638 0001307  99.5404 260.5736 15.08834510 63268,6917.897,95.438,540.666,538.858,0.0
53424.0,STARLINK-4532,PAYLOAD,2023-09-25 03:57:33,15.08857711,0.0001316,53.2157,178.7714,104.53,255.5839,0.00099844,0.00015646,0.0,0 STARLINK-4532,1 53424U 22097AN  23268.16497551  .00015646  00000-0  99844-3 0  9996,2 53424  53.2157 178.7714 0001316 104.5300 255.5839 15.08857711 62820,6917.826,95.436,540.602,538.781,0.0
53424.0,STARLINK-4532,PAYLOAD,2023-09-25 21:26:47,15.08864734,0.0001296,53.2161,175.4992,98.9631,261.1508,0.00080368,0.00012534,0.0,0 STARLINK-4532,1 53424U 22097AN  23268.89360987  .00012534  00000-0  80368-3 0  9992,2 53424  53.2161 175.4992 0001296  98.9631 261.1508 15.08864734 63412,6917.805,95.436,540.566,538.773,0.0
53424.0,STARLINK-4532,PAYLOAD,2023-09-25 23:02:10,15.08869309,0.0001362,53.2166,175.2012,97.2835,262.8312,0.00090603,0.00014172,0.0,0 STARLINK-4532,1 53424U 22097AN  23268.95984822  .00014172  00000-0  90603-3 0  9992,2 53424  53.2166 175.2012 0001362  97.2835 262.8312 15.08869309 62941,6917.791,95.436,540.598,538.714,0.0
53424.0,STARLINK-4532,PAYLOAD,2023-09-26 18:06:48,15.08842444,0.0001283,53.2164,171.6333,94.4632,265.6507,0.00017645,2.522e-05,0.0,0 STARLINK-4532,1 53424U 22097AN  23269.75473271  .00002522  00000-0  17645-3 0  9993,2 53424  53.2164 171.6333 0001283  94.4632 265.6507 15.08842444 63063,6917.873,95.437,540.625,538.85,0.0
53424.0,STARLINK-4532,PAYLOAD,2023-09-26 21:17:35,15.08836207,0.0001352,53.2166,171.0385,103.2245,256.8898,7.6693e-05,9.33e-06,0.0,0 STARLINK-4532,1 53424U 22097AN  23269.88721468  .00000933  00000-0  76693-4 0  9994,2 53424  53.2166 171.0385 0001352 103.2245 256.8898 15.08836207 63562,6917.892,95.438,540.692,538.822,0.0
53424.0,STARLINK-4532,PAYLOAD,2023-09-27 00:28:21,15.08832965,0.0001237,53.2161,170.4439,98.3369,261.7764,-0.0001054,-1.965e-05,0.0,0 STARLINK-4532,1 53424U 22097AN  23270.01969614 -.00001965  00000-0 -10540-3 0  9994,2 53424  53.2161 170.4439 0001237  98.3369 261.7764 15.08832965 63107,6917.902,95.438,540.623,538.911,0.0
53424.0,STARLINK-4532,PAYLOAD,2023-09-27 10:00:41,15.08825364,0.0001254,53.2157,168.6608,90.8174,269.2962,-0.00021817,-3.757e-05,0.0,0 STARLINK-4532,1 53424U 22097AN  23270.41714343 -.00003757  00000-0 -21817-3 0  9995,2 53424  53.2157 168.6608 0001254  90.8174 269.2962 15.08825364 63646,6917.925,95.438,540.658,538.923,0.0
53424.0,STARLINK-4532,PAYLOAD,2023-09-27 22:43:46,15.08825483,0.0001317,53.2153,166.282,93.8562,266.2581,-0.00013448,-2.427e-05,0.0,0 STARLINK-4532,1 53424U 22097AN  23270.94706988 -.00002427  00000-0 -13448-3 0  9993,2 53424  53.2153 166.2820 0001317  93.8562 266.2581 15.08825483 63721,6917.925,95.438,540.701,538.879,0.0
53424.0,STARLINK-4532,PAYLOAD,2023-09-28 17:48:24,15.0883692,0.0001461,53.216,162.7136,94.6822,265.4337,0.00030745,4.608e-05,0.0,0 STARLINK-4532,1 53424U 22097AN  23271.74194896  .00004608  00000-0  30745-3 0  9991,2 53424  53.2160 162.7136 0001461  94.6822 265.4337 15.08836920 63366,6917.89,95.438,540.766,538.744,0.0
53424.0,STARLINK-4532,PAYLOAD,2023-09-28 20:59:10,15.08842166,0.0001433,53.2164,162.1191,96.1581,263.9575,0.00036343,5.501e-05,0.0,0 STARLINK-4532,1 53424U 22097AN  23271.87442691  .00005501  00000-0  36343-3 0  9997,2 53424  53.2164 162.1191 0001433  96.1581 263.9575 15.08842166 63864,6917.874,95.437,540.73,538.747,0.0
53424.0,STARLINK-4532,PAYLOAD,2023-09-29 03:20:42,15.0884917,0.0001453,53.2163,160.9294,95.9364,264.1794,0.00042561,6.494e-05,0.0,0 STARLINK-4532,1 53424U 22097AN  23272.13938371  .00006494  00000-0  42561-3 0  9993,2 53424  53.2163 160.9294 0001453  95.9364 264.1794 15.08849170 63421,6917.852,95.437,540.723,538.712,0.0
53424.0,STARLINK-4532,PAYLOAD,2023-09-30 00:00:43,15.088505,0.0001467,53.2165,157.0633,85.0919,275.024,0.00019159,2.763e-05,0.0,0 STARLINK-4532,1 53424U 22097AN  23273.00050306  .00002763  00000-0  19159-3 0  9995,2 53424  53.2165 157.0633 0001467  85.0919 275.0240 15.08850500 63558,6917.848,95.437,540.728,538.698,0.0
53424.0,STARLINK-4532,PAYLOAD,2023-09-30 09:33:02,15.08842915,0.0001318,53.2155,155.2817,96.905,263.2092,-9.8584e-06,-4.45e-06,0.0,0 STARLINK-4532,1 53424U 22097AN  23273.39794271 -.00000445  00000-0 -98584-5 0  9991,2 53424  53.2155 155.2817 0001318  96.9050 263.2092 15.08842915 63615,6917.871,95.437,540.648,538.825,0.0
53424.0,STARLINK-4532,PAYLOAD,2023-10-01 09:23:49,15.08841643,0.0001416,53.2157,150.8187,95.5427,264.5726,0.00013243,1.82e-05,0.0,0 STARLINK-4532,1 53424U 22097AN  23274.39154655  .00001820  00000-0  13243-3 0  9991,2 53424  53.2157 150.8187 0001416  95.5427 264.5726 15.08841643 64245,6917.875,95.437,540.72,538.761,0.0
53424.0,STARLINK-4532,PAYLOAD,2023-10-01 22:06:54,15.08852447,0.0001297,53.2153,148.4414,99.5323,260.5815,0.00030527,4.575e-05,0.0,0 STARLINK-4532,1 53424U 22097AN  23274.92146157  .00004575  00000-0  30527-3 0  9992,2 53424  53.2153 148.4414 0001297  99.5323 260.5815 15.08852447 64321,6917.842,95.437,540.605,538.81,0.0
53424.0,STARLINK-4532,PAYLOAD,2023-10-02 01:17:40,15.08857905,0.000138,53.2156,147.8447,100.7408,259.3739,0.0004111,6.264e-05,0.0,0 STARLINK-4532,1 53424U 22097AN  23275.05393890  .00006264  00000-0  41110-3 0  9992,2 53424  53.2156 147.8447 0001380 100.7408 259.3739 15.08857905 63868,6917.826,95.436,540.645,538.736,0.0
53424.0,STARLINK-4532,PAYLOAD,2023-10-02 09:14:36,15.08841455,0.0001757,53.2156,146.3591,97.7806,262.3385,0.00011558,1.552e-05,0.0,0 STARLINK-4532,1 53424U 22097AN  23275.38514577  .00001552  00000-0  11558-3 0  9993,2 53424  53.2156 146.3591 0001757  97.7806 262.3385 15.08841455 63917,6917.876,95.437,540.956,538.525,0.0
53424.0,STARLINK-4532,PAYLOAD,2023-10-02 20:22:18,15.08842808,0.0001657,53.216,144.2765,101.2344,258.8835,0.00013135,1.803e-05,0.0,0 STARLINK-4532,1 53424U 22097AN  23275.84882479  .00001803  00000-0  13135-3 0  9995,2 53424  53.2160 144.2765 0001657 101.2344 258.8835 15.08842808 64463,6917.872,95.437,540.883,538.591,0.0
53424.0,STARLINK-4532,PAYLOAD,2023-10-03 01:08:27,15.08847683,0.0001467,53.2153,143.3859,100.0119,260.1039,0.00018038,2.585e-05,0.0,0 STARLINK-4532,1 53424U 22097AN  23276.04754288  .00002585  00000-0  18038-3 0  9999,2 53424  53.2153 143.3859 0001467 100.0119 260.1039 15.08847683 64496,6917.857,95.437,540.737,538.707,0.0
53424.0,STARLINK-4532,PAYLOAD,2023-10-03 18:37:42,15.08836236,0.0001565,53.2157,140.1117,88.7181,271.3991,-1.5124e-05,-5.29e-06,0.0,0 STARLINK-4532,1 53424U 22097AN  23276.77618891 -.00000529  00000-0 -15124-4 0  9990,2 53424  53.2157 140.1117 0001565  88.7181 271.3991 15.08836236 64125,6917.892,95.438,540.84,538.674,0.0
53424.0,STARLINK-4532,PAYLOAD,2023-10-03 21:48:28,15.08850001,0.0001528,53.2149,139.5149,100.3424,259.7741,-0.00023047,-3.955e-05,0.0,0 STARLINK-4532,1 53424U 22097AN  23276.90866210 -.00003955  00000-0 -23047-3 0  9993,2 53424  53.2149 139.5149 0001528 100.3424 259.7741 15.08850001 64627,6917.85,95.437,540.772,538.658,0.0
53424.0,STARLINK-4532,PAYLOAD,2023-10-04 07:20:47,15.08844794,0.0001363,53.2155,137.7368,91.6105,268.5043,9.072e-05,1.156e-05,0.0,0 STARLINK-4532,1 53424U 22097AN  23277.30610533  .00001156  00000-0  90720-4 0  9995,2 53424  53.2155 137.7368 0001363  91.6105 268.5043 15.08844794 64683,6917.866,95.437,540.674,538.788,0.0
53424.0,STARLINK-4532,PAYLOAD,2023-10-04 18:28:29,15.08842655,0.0001412,53.2154,135.6557,91.0961,269.0193,0.00022602,3.311e-05,0.0,0 STARLINK-4532,1 53424U 22097AN  23277.76978722  .00003311  00000-0  22602-3 0  9990,2 53424  53.2154 135.6557 0001412  91.0961 269.0193 15.08842655 64279,6917.872,95.437,540.714,538.76,0.0
53424.0,STARLINK-4532,PAYLOAD,2023-10-04 21:39:15,15.08846355,0.0001304,53.214,135.0624,85.1607,274.9534,0.00027583,4.105e-05,0.0,0 STARLINK-4532,1 53424U 22097AN  23277.90226547  .00004105  00000-0  27583-3 0  9992,2 53424  53.2140 135.0624 0001304  85.1607 274.9534 15.08846355 64774,6917.861,95.437,540.628,538.824,0.0
